start=new Date('2021-12-07T00:00:00.000Z').valueOf();
sats=[{"APOAPSIS":"548.648","GP_ID":"191203085","RCS_SIZE":"LARGE","PERIOD":"95.593","TLE_LINE1":"1 45411U 20019BD  21340.03934193 -.00000176  00000-0  71213-5 0  9993","SITE":"AFETR","OBJECT_ID":"2020-019BD","FILE":"3234035","EPOCH":"2021-12-06T00:56:39.142752","CENTER_NAME":"EARTH","RA_OF_ASC_NODE":"275.7104","PERIAPSIS":"545.847","ARG_OF_PERICENTER":"58.9896","DECAY_DATE":null,"TIME_SYSTEM":"UTC","CLASSIFICATION_TYPE":"U","INCLINATION":"53.0544","COUNTRY_CODE":"US","OBJECT_TYPE":"PAYLOAD","LAUNCH_DATE":"2020-03-18","ELEMENT_SET_NO":"999","EPHEMERIS_TYPE":"0","MEAN_MOTION_DOT":"-0.00000176","OBJECT_NAME":"STARLINK-1293","NORAD_CAT_ID":"45411","MEAN_ANOMALY":"301.1291","MEAN_MOTION_DDOT":"0.0000000000000","REV_AT_EPOCH":"9556","SEMIMAJOR_AXIS":"6925.383","REF_FRAME":"TEME","BSTAR":"0.00000712130000","MEAN_ELEMENT_THEORY":"SGP4","TLE_LINE2":"2 45411  53.0544 275.7104 0002022  58.9896 301.1291 15.06388912 95560","MEAN_MOTION":"15.06388912","ECCENTRICITY":"0.00020220"},{"MEAN_MOTION_DDOT":"0.0000000000000","REV_AT_EPOCH":"9565","MEAN_ANOMALY":"302.0206","BSTAR":"0.00006300500000","REF_FRAME":"TEME","SEMIMAJOR_AXIS":"6925.358","MEAN_MOTION":"15.06396985","TLE_LINE2":"2 45412  53.0557 272.3002 0002077  58.0985 302.0206 15.06396985 95650","MEAN_ELEMENT_THEORY":"SGP4","ECCENTRICITY":"0.00020770","LAUNCH_DATE":"2020-03-18","OBJECT_TYPE":"PAYLOAD","INCLINATION":"53.0557","COUNTRY_CODE":"US","EPHEMERIS_TYPE":"0","ELEMENT_SET_NO":"999","OBJECT_NAME":"STARLINK-1296","MEAN_MOTION_DOT":"0.00000657","NORAD_CAT_ID":"45412","ARG_OF_PERICENTER":"58.0985","DECAY_DATE":null,"PERIAPSIS":"545.784","CLASSIFICATION_TYPE":"U","TIME_SYSTEM":"UTC","PERIOD":"95.592","RCS_SIZE":"LARGE","GP_ID":"191232436","APOAPSIS":"548.661","SITE":"AFETR","OBJECT_ID":"2020-019BE","TLE_LINE1":"1 45412U 20019BE  21340.80232906  .00000657  00000-0  63005-4 0  9994","CENTER_NAME":"EARTH","EPOCH":"2021-12-06T19:15:21.230784","FILE":"3234296","RA_OF_ASC_NODE":"272.3002"},{"OBJECT_TYPE":"PAYLOAD","LAUNCH_DATE":"2020-03-18","INCLINATION":"53.0538","COUNTRY_CODE":"US","EPHEMERIS_TYPE":"0","ELEMENT_SET_NO":"999","MEAN_MOTION_DOT":"0.00001766","OBJECT_NAME":"STARLINK-1298","NORAD_CAT_ID":"45413","MEAN_MOTION_DDOT":"0.0000000000000","REV_AT_EPOCH":"9564","MEAN_ANOMALY":"302.3313","SEMIMAJOR_AXIS":"6925.373","REF_FRAME":"TEME","BSTAR":"0.00013749000000","MEAN_ELEMENT_THEORY":"SGP4","TLE_LINE2":"2 45413  53.0538 275.4437 0002096  57.7879 302.3313 15.06392064 95640","MEAN_MOTION":"15.06392064","ECCENTRICITY":"0.00020960","PERIOD":"95.593","APOAPSIS":"548.689","GP_ID":"191204087","RCS_SIZE":"LARGE","TLE_LINE1":"1 45413U 20019BF  21340.10199901  .00001766  00000-0  13749-3 0  9996","SITE":"AFETR","OBJECT_ID":"2020-019BF","CENTER_NAME":"EARTH","FILE":"3234035","EPOCH":"2021-12-06T02:26:52.714464","RA_OF_ASC_NODE":"275.4437","ARG_OF_PERICENTER":"57.7879","DECAY_DATE":null,"PERIAPSIS":"545.786","TIME_SYSTEM":"UTC","CLASSIFICATION_TYPE":"U"},{"MEAN_MOTION_DOT":"-0.00000112","OBJECT_NAME":"STARLINK-1309","NORAD_CAT_ID":"45414","OBJECT_TYPE":"PAYLOAD","LAUNCH_DATE":"2020-03-18","COUNTRY_CODE":"US","INCLINATION":"53.0537","EPHEMERIS_TYPE":"0","ELEMENT_SET_NO":"999","MEAN_ELEMENT_THEORY":"SGP4","TLE_LINE2":"2 45414  53.0537 273.4242 0002228  64.3862 295.7357 15.06398794 95600","MEAN_MOTION":"15.06398794","ECCENTRICITY":"0.00022280","REV_AT_EPOCH":"9560","MEAN_MOTION_DDOT":"0.0000000000000","MEAN_ANOMALY":"295.7357","SEMIMAJOR_AXIS":"6925.352","BSTAR":"0.00001137200000","REF_FRAME":"TEME","CENTER_NAME":"EARTH","FILE":"3234035","EPOCH":"2021-12-06T13:14:26.296800","RA_OF_ASC_NODE":"273.4242","PERIOD":"95.592","APOAPSIS":"548.760","RCS_SIZE":"LARGE","GP_ID":"191204829","TLE_LINE1":"1 45414U 20019BG  21340.55169325 -.00000112  00000-0  11372-4 0  9999","OBJECT_ID":"2020-019BG","SITE":"AFETR","TIME_SYSTEM":"UTC","CLASSIFICATION_TYPE":"U","DECAY_DATE":null,"ARG_OF_PERICENTER":"64.3862","PERIAPSIS":"545.674"},{"INCLINATION":"53.0537","COUNTRY_CODE":"US","OBJECT_TYPE":"PAYLOAD","LAUNCH_DATE":"2020-03-18","ELEMENT_SET_NO":"999","EPHEMERIS_TYPE":"0","MEAN_MOTION_DOT":"0.00000048","OBJECT_NAME":"STARLINK-1316","NORAD_CAT_ID":"45415","MEAN_ANOMALY":"294.7824","REV_AT_EPOCH":"9563","MEAN_MOTION_DDOT":"0.0000000000000","SEMIMAJOR_AXIS":"6925.359","REF_FRAME":"TEME","BSTAR":"0.00002213400000","MEAN_ELEMENT_THEORY":"SGP4","MEAN_MOTION":"15.06396678","TLE_LINE2":"2 45415  53.0537 273.5916 0002290  65.3404 294.7824 15.06396678 95632","ECCENTRICITY":"0.00022900","APOAPSIS":"548.810","RCS_SIZE":"LARGE","GP_ID":"191213025","PERIOD":"95.592","TLE_LINE1":"1 45415U 20019BH  21340.51113403  .00000048  00000-0  22134-4 0  9997","OBJECT_ID":"2020-019BH","SITE":"AFETR","FILE":"3234264","EPOCH":"2021-12-06T12:16:01.980192","CENTER_NAME":"EARTH","RA_OF_ASC_NODE":"273.5916","PERIAPSIS":"545.638","DECAY_DATE":null,"ARG_OF_PERICENTER":"65.3404","TIME_SYSTEM":"UTC","CLASSIFICATION_TYPE":"U"},{"PERIOD":"95.593","GP_ID":"191203336","RCS_SIZE":"LARGE","APOAPSIS":"548.790","SITE":"AFETR","OBJECT_ID":"2020-019BJ","TLE_LINE1":"1 45416U 20019BJ  21340.54430594 -.00000309  00000-0 -18567-5 0  9992","CENTER_NAME":"EARTH","EPOCH":"2021-12-06T13:03:48.033216","FILE":"3234035","RA_OF_ASC_NODE":"273.4576","DECAY_DATE":null,"ARG_OF_PERICENTER":"62.2724","PERIAPSIS":"545.678","CLASSIFICATION_TYPE":"U","TIME_SYSTEM":"UTC","LAUNCH_DATE":"2020-03-18","OBJECT_TYPE":"PAYLOAD","COUNTRY_CODE":"US","INCLINATION":"53.0552","EPHEMERIS_TYPE":"0","ELEMENT_SET_NO":"999","OBJECT_NAME":"STARLINK-1318","MEAN_MOTION_DOT":"-0.00000309","NORAD_CAT_ID":"45416","MEAN_MOTION_DDOT":"0.0000000000000","REV_AT_EPOCH":"9562","MEAN_ANOMALY":"297.8492","REF_FRAME":"TEME","BSTAR":"-0.00000185670000","SEMIMAJOR_AXIS":"6925.369","TLE_LINE2":"2 45416  53.0552 273.4576 0002247  62.2724 297.8492 15.06393444 95626","MEAN_MOTION":"15.06393444","MEAN_ELEMENT_THEORY":"SGP4","ECCENTRICITY":"0.00022470"},{"DECAY_DATE":null,"ARG_OF_PERICENTER":"63.0286","PERIAPSIS":"545.901","TIME_SYSTEM":"UTC","CLASSIFICATION_TYPE":"U","PERIOD":"95.592","APOAPSIS":"548.553","RCS_SIZE":"LARGE","GP_ID":"191233188","TLE_LINE1":"1 45417U 20019BK  21340.94700427  .00002226  00000-0  16835-3 0  9994","SITE":"AFETR","OBJECT_ID":"2020-019BK","CENTER_NAME":"EARTH","FILE":"3234296","EPOCH":"2021-12-06T22:43:41.168928","RA_OF_ASC_NODE":"301.6538","REV_AT_EPOCH":"9553","MEAN_MOTION_DDOT":"0.0000000000000","MEAN_ANOMALY":"297.0898","SEMIMAJOR_AXIS":"6925.362","REF_FRAME":"TEME","BSTAR":"0.00016835000000","MEAN_ELEMENT_THEORY":"SGP4","TLE_LINE2":"2 45417  53.0554 301.6538 0001915  63.0286 297.0898 15.06395555 95531","MEAN_MOTION":"15.06395555","ECCENTRICITY":"0.00019150","OBJECT_TYPE":"PAYLOAD","LAUNCH_DATE":"2020-03-18","INCLINATION":"53.0554","COUNTRY_CODE":"US","EPHEMERIS_TYPE":"0","ELEMENT_SET_NO":"999","MEAN_MOTION_DOT":"0.00002226","OBJECT_NAME":"STARLINK-1286","NORAD_CAT_ID":"45417"},{"PERIAPSIS":"560.980","DECAY_DATE":null,"ARG_OF_PERICENTER":"69.5305","CLASSIFICATION_TYPE":"U","TIME_SYSTEM":"UTC","RCS_SIZE":"LARGE","GP_ID":"191233939","APOAPSIS":"562.835","PERIOD":"95.897","SITE":"AFETR","OBJECT_ID":"2020-019BL","TLE_LINE1":"1 45418U 20019BL  21340.90955628  .00003241  00000-0  26760-3 0  9992","EPOCH":"2021-12-06T21:49:45.662592","FILE":"3234296","CENTER_NAME":"EARTH","RA_OF_ASC_NODE":"320.4315","MEAN_ANOMALY":"290.5825","REV_AT_EPOCH":"9498","MEAN_MOTION_DDOT":"0.0000000000000","BSTAR":"0.00026760000000","REF_FRAME":"TEME","SEMIMAJOR_AXIS":"6940.042","MEAN_MOTION":"15.01618367","TLE_LINE2":"2 45418  53.0015 320.4315 0001336  69.5305 290.5825 15.01618367 94986","MEAN_ELEMENT_THEORY":"SGP4","ECCENTRICITY":"0.00013360","INCLINATION":"53.0015","COUNTRY_CODE":"US","LAUNCH_DATE":"2020-03-18","OBJECT_TYPE":"PAYLOAD","ELEMENT_SET_NO":"999","EPHEMERIS_TYPE":"0","OBJECT_NAME":"STARLINK-1299","MEAN_MOTION_DOT":"0.00003241","NORAD_CAT_ID":"45418"},{"COUNTRY_CODE":"US","INCLINATION":"53.0540","LAUNCH_DATE":"2020-03-18","OBJECT_TYPE":"PAYLOAD","ELEMENT_SET_NO":"999","EPHEMERIS_TYPE":"0","OBJECT_NAME":"STARLINK-1308","MEAN_MOTION_DOT":"0.00001913","NORAD_CAT_ID":"45419","MEAN_ANOMALY":"303.0440","MEAN_MOTION_DDOT":"0.0000000000000","REV_AT_EPOCH":"9523","REF_FRAME":"TEME","BSTAR":"0.00014728000000","SEMIMAJOR_AXIS":"6925.350","MEAN_MOTION":"15.06399626","TLE_LINE2":"2 45419  53.0540 303.1447 0001793  57.0721 303.0440 15.06399626 95236","MEAN_ELEMENT_THEORY":"SGP4","ECCENTRICITY":"0.00017930","RCS_SIZE":"LARGE","GP_ID":"191232687","APOAPSIS":"548.456","PERIOD":"95.592","SITE":"AFETR","OBJECT_ID":"2020-019BM","TLE_LINE1":"1 45419U 20019BM  21340.61157789  .00001913  00000-0  14728-3 0  9998","EPOCH":"2021-12-06T14:40:40.329696","FILE":"3234296","CENTER_NAME":"EARTH","RA_OF_ASC_NODE":"303.1447","PERIAPSIS":"545.973","DECAY_DATE":null,"ARG_OF_PERICENTER":"57.0721","CLASSIFICATION_TYPE":"U","TIME_SYSTEM":"UTC"},{"NORAD_CAT_ID":"45531","OBJECT_NAME":"STARLINK-1329","MEAN_MOTION_DOT":"0.00001844","ELEMENT_SET_NO":"999","EPHEMERIS_TYPE":"0","INCLINATION":"53.0539","COUNTRY_CODE":"US","LAUNCH_DATE":"2020-04-22","OBJECT_TYPE":"PAYLOAD","ECCENTRICITY":"0.00019150","TLE_LINE2":"2 45531  53.0539 241.7873 0001915  63.2285 296.8900 15.06393179 90905","MEAN_MOTION":"15.06393179","MEAN_ELEMENT_THEORY":"SGP4","BSTAR":"0.00014268000000","REF_FRAME":"TEME","SEMIMAJOR_AXIS":"6925.369","MEAN_ANOMALY":"296.8900","MEAN_MOTION_DDOT":"0.0000000000000","REV_AT_EPOCH":"9090","RA_OF_ASC_NODE":"241.7873","EPOCH":"2021-12-06T21:53:15.966240","FILE":"3234296","CENTER_NAME":"EARTH","SITE":"AFETR","OBJECT_ID":"2020-025A","TLE_LINE1":"1 45531U 20025A   21340.91199035  .00001844  00000-0  14268-3 0  9995","GP_ID":"191232949","RCS_SIZE":"LARGE","APOAPSIS":"548.561","PERIOD":"95.593","CLASSIFICATION_TYPE":"U","TIME_SYSTEM":"UTC","PERIAPSIS":"545.908","DECAY_DATE":null,"ARG_OF_PERICENTER":"63.2285"}];
